OBJECT_NAME,OBJECT_ID,EPOCH,MEAN_MOTION,ECCENTRICITY,INCLINATION,RA_OF_ASC_NODE,ARG_OF_PERICENTER,MEAN_ANOMALY,EPHEMERIS_TYPE,CLASSIFICATION_TYPE,NORAD_CAT_ID,ELEMENT_SET_NO,REV_AT_EPOCH,BSTAR,MEAN_MOTION_DOT,MEAN_MOTION_DDOT
GALAXY 30 (G-30),2020-056C,2026-06-07T17:58:02.449344,1.00272738,.0002255,0.0181,357.7373,76.6816,326.2340,0,U,46114,999,2119,0,.51E-6,0
GAOFEN-13 01,2020-071A,2026-06-07T21:41:13.208640,1.00276313,.004113,0.4962,84.9509,123.1840,131.6305,0,U,46610,999,2082,0,-.347E-5,0
TIANTONG-1 2,2020-082A,2026-06-07T20:51:51.598080,1.00268345,.0001437,0.8032,326.1047,109.7906,258.2636,0,U,46916,999,2055,0,-.341E-5,0
LUCAS (JDRS-1),2020-089A,2026-06-07T19:22:21.896832,1.00273845,.0002398,0.0300,275.4046,152.2301,209.9487,0,U,47202,999,2032,0,-.221E-5,0
SXM-7,2020-096A,2026-06-07T14:44:03.697152,1.00271437,.0004062,0.0378,141.6884,342.0661,268.1326,0,U,47240,999,734,0,-.19E-5,0
CMS-01,2020-099A,2026-06-07T18:21:46.315296,1.00270292,.0003575,0.0734,99.6976,183.2919,331.6068,0,U,47256,999,2010,0,-.149E-5,0
TURKSAT 5A,2021-001A,2026-06-07T16:59:44.553120,1.00271760,.0000098,0.0123,42.3903,28.7860,110.8114,0,U,47306,999,1987,0,.169E-5,0
TIANTONG-1 3,2021-003A,2026-06-07T20:39:37.770048,1.00272665,.0003521,1.7640,338.7087,104.0994,204.9083,0,U,47321,999,1986,0,-.142E-5,0
TJS-6,2021-010A,2026-06-06T02:20:25.074816,1.00269486,.0005375,0.2892,89.8415,54.6095,323.6795,0,U,47613,999,1970,0,.56E-6,0
SBIRS GEO-5 (USA 315),2021-042A,2026-06-07T16:29:07.284768,1.00271376,.0001643,5.1162,329.0450,120.0535,148.0856,0,U,48618,999,1867,0,-.258E-5,0
FENGYUN 4B,2021-047A,2026-06-05T14:00:51.751584,1.00266147,.00051777,0.1239,75.7773,289.8220,203.2690,0,U,48808,999,1845,0,-.317E-5,0
SXM-8,2021-049A,2026-06-07T14:44:03.697152,1.00270420,.0005048,0.0192,13.5881,19.7069,358.5975,0,U,48838,999,1848,0,-.19E-5,0
TIANLIAN 1-05,2021-063A,2026-06-07T21:03:06.643872,1.00271821,.0000924,1.5689,80.7815,318.5391,189.5596,0,U,49011,999,1798,0,.123E-5,0
STAR ONE D2,2021-069A,2026-06-07T07:57:32.984064,1.00269082,.0001809,0.0130,339.5261,120.3612,205.1400,0,U,49055,999,1784,0,0,0
EUTELSAT QUANTUM,2021-069B,2026-06-07T18:47:15.029376,1.00272092,.0002366,0.0098,346.9172,85.9726,152.8054,0,U,49056,999,1783,0,.141E-5,0
ZHONGXING-2E,2021-071A,2026-06-07T20:42:41.224896,1.00274257,.0001775,0.0457,243.1432,236.6690,185.1734,0,U,49062,999,1794,0,-.277E-5,0
TJS-7,2021-077A,2026-06-07T16:22:34.182048,1.00271270,.0002494,0.4836,86.1865,334.5878,341.4979,0,U,49115,999,945,0,-.109E-5,0
CHINASAT 9B,2021-080A,2026-06-07T20:45:14.731776,1.00273608,.0001568,0.0293,88.8515,11.6338,208.5076,0,U,49125,999,1755,0,-.298E-5,0
SHIJIAN-21 (SJ-21),2021-094A,2026-06-07T18:08:28.781088,1.00276038,.0049529,5.0898,61.2351,168.0080,67.0219,0,U,49330,999,526,0,-.333E-5,0
SES-17,2021-095A,2026-06-07T18:14:27.777408,1.00272414,.0001004,0.0235,31.3956,55.2111,16.0768,0,U,49332,999,1776,0,-.257E-5,0
SYRACUSE 4A,2021-095B,2026-06-07T11:55:58.548288,1.00271065,.0001337,0.0169,340.7258,92.1867,47.4841,0,U,49333,999,1785,0,.15E-5,0
QZS-1R (MICHIBIKI-1R),2021-096A,2026-06-07T15:44:18.159072,1.00259216,.0754275,37.4420,79.7260,271.5943,275.3757,0,U,49336,999,1691,0,-.231E-5,0
ZHONGXING-1D,2021-114A,2026-06-07T21:07:09.052896,1.00274449,.000015,0.0401,245.0571,310.7685,147.4254,0,U,49505,999,1672,0,-.321E-5,0
STPSAT-6,2021-118A,2026-06-07T14:36:26.927136,1.00273545,.0001409,0.2950,85.5145,258.6460,19.2737,0,U,49817,999,1647,0,-.31E-6,0
EXPRESS AMU-7,2021-123A,2026-06-07T20:57:43.536384,1.00272839,.0000609,0.0168,281.5197,71.8148,2.3700,0,U,50001,999,1644,0,-.227E-5,0
EXPRESS AMU-3,2021-123B,2026-06-06T00:10:43.305024,1.00270112,.0000425,0.0231,311.6887,355.6601,52.6473,0,U,50002,999,692,0,0,0
TIANLIAN 2-02,2021-124A,2026-06-07T19:22:26.654880,1.00272741,.0001133,0.7765,86.2720,221.6177,49.9075,0,U,50005,999,1652,0,.1E-7,0
TURKSAT 5B,2021-126A,2026-06-07T10:12:12.838176,1.00271386,.0003756,0.0685,339.5286,18.2742,93.0890,0,U,50212,999,1620,0,.16E-5,0
INMARSAT 6-F1,2021-128A,2026-06-07T10:24:09.566784,1.00271525,.0000137,0.0128,290.5512,218.3765,346.7089,0,U,50319,999,1616,0,-.157E-5,0
SHIYAN-12 01 (SY-12 01),2021-129A,2026-06-07T17:22:47.443008,1.00038133,.0003439,3.6491,80.0377,288.5229,216.2946,0,U,50321,999,1640,0,.4E-6,0
SHIYAN-12 02 (SY-12 02),2021-129B,2026-06-07T17:23:12.122304,1.00491873,.0002688,3.6488,80.0444,53.7262,104.6008,0,U,50322,999,1640,0,-.183E-5,0
TJS-9,2021-135A,2026-06-07T20:55:28.750656,1.00272307,.0004828,0.0592,255.6550,152.8676,298.8320,0,U,50574,999,1633,0,-.283E-5,0
USA 324,2022-006A,2026-06-06T02:06:38.886912,1.00289779,.000284,0.7690,83.2777,165.6787,110.1567,0,U,51280,999,1602,0,-.58E-6,0
GOES 18,2022-021A,2026-06-07T17:54:32.784192,1.00272403,.0000591,0.0334,152.6519,342.4630,252.6707,0,U,51850,999,649,0,.112E-5,0
ZHONGXING-6D,2022-038A,2026-06-06T22:38:18.328416,1.00270014,.0000219,0.0390,94.7536,265.2750,359.9785,0,U,52255,999,1532,0,-.34E-5,0
NILESAT 301,2022-061A,2026-06-07T20:14:18.529728,1.00271980,.0005478,0.0564,27.2585,16.3046,149.2544,0,U,52817,999,1464,0,-.43E-6,0
CMS-02 (GSAT-24),2022-067A,2026-06-07T20:40:00.234048,1.00271164,.0001784,0.0367,137.7165,235.2709,276.2816,0,U,52903,999,1451,0,-.15E-5,0
MEASAT 3D,2022-067B,2026-06-07T21:14:31.674912,1.00270105,.0001179,0.0282,3.4103,33.5378,269.4669,0,U,52904,999,1455,0,-.226E-5,0
SES-22,2022-071A,2026-06-07T17:54:02.831040,1.00273650,.000122,0.0270,285.5984,144.3299,315.7405,0,U,52933,999,742,0,.119E-5,0
WFOV (USA 332),2022-073A,2026-06-07T19:07:35.577120,1.00272222,.0002148,3.6859,78.6475,244.9746,338.7350,0,U,52940,999,1427,0,-.347E-5,0
TIANLIAN 2-03,2022-078A,2026-06-07T19:12:38.733984,1.00271907,.0001631,0.6485,76.8439,318.2884,159.8167,0,U,53100,999,1445,0,.87E-6,0
SBIRS GEO-6 (USA 336),2022-092A,2026-06-07T17:30:35.081280,1.00271336,.0002045,3.2746,317.3222,117.8587,222.6101,0,U,53355,999,1413,0,-.279E-5,0
EUTELSAT KONNECT VHTS,2022-110A,2026-06-07T13:26:27.710016,1.00269852,.0002746,0.0649,103.3082,318.7368,38.2459,0,U,53765,999,674,0,.32E-6,0
ZHONGXING-1E,2022-112A,2026-06-07T20:39:30.281760,1.00270688,.0000272,0.0445,107.4505,245.8591,294.2358,0,U,53813,999,1375,0,-.134E-5,0
SES-20,2022-123A,2026-06-07T11:16:38.235936,1.00269904,.0002049,0.0381,80.2305,15.0776,226.6269,0,U,53960,999,1343,0,-.86E-6,0
SES-21,2022-123B,2026-06-07T12:48:16.630848,1.00270230,.0000861,0.0277,30.3767,45.2051,241.4109,0,U,53961,999,711,0,.84E-6,0
GALAXY 33 (G-33),2022-128A,2026-06-07T17:55:40.176192,1.00272418,.0001879,0.0260,57.3204,19.7794,314.9812,0,U,54026,999,1364,0,.94E-6,0
GALAXY 34 (G-34),2022-128B,2026-06-07T16:14:12.484032,1.00276145,.0001938,0.0089,327.1058,125.3238,278.2116,0,U,54027,999,1381,0,.73E-6,0
ANGOSAT 2,2022-131A,2026-06-06T15:17:30.376896,1.00272301,.00014491,0.0274,77.0475,32.7514,37.6293,0,U,54033,999,1337,0,.149E-5,0
EUTELSAT HOTBIRD 13F,2022-134A,2026-06-07T20:19:56.981856,1.00272009,.0002044,0.0486,290.7408,69.4604,214.0433,0,U,54048,999,1328,0,.102E-5,0
LDPE-2,2022-144A,2026-06-07T12:38:10.101120,1.00528755,.000174,5.5890,63.7293,95.5237,119.7377,0,U,54219,999,1174,0,.141E-5,0
EUTELSAT HOTBIRD 13G,2022-146A,2026-06-07T20:19:56.981856,1.00272062,.0002008,0.0466,233.7322,306.7346,33.7680,0,U,54225,999,737,0,.102E-5,0
ZHONGXING-19,2022-148A,2026-06-07T19:20:11.870016,1.00271779,.0002428,0.0237,277.7623,184.7675,246.9175,0,U,54230,999,1328,0,-.66E-6,0
GALAXY 31 (G-31),2022-153A,2026-06-07T16:16:19.778880,1.00272348,.0001355,0.0317,103.7573,334.3280,301.0814,0,U,54243,999,703,0,.28E-6,0
GALAXY 32 (G-32),2022-153B,2026-06-07T11:17:01.453344,1.00270572,.00022,0.0092,330.8066,66.7511,296.5788,0,U,54244,999,1304,0,-.16E-5,0
EUTELSAT 10B,2022-157A,2026-06-07T15:11:07.891872,1.00273499,.000191,0.0621,102.6899,348.1718,42.9749,0,U,54259,999,1293,0,.84E-6,0
GALAXY 35 (G-35),2022-170A,2026-06-07T12:59:08.092032,1.00271725,.0002144,0.0207,77.1642,2.8403,277.6312,0,U,54741,999,1279,0,-.148E-5,0
GALAXY 36 (G-36),2022-170B,2026-06-07T14:42:56.305152,1.00271440,.0002759,0.0044,278.1981,164.0915,305.4688,0,U,54742,999,1267,0,-.171E-5,0
METEOSAT-12 (MTG-I1),2022-170C,2026-06-07T16:50:52.902816,1.00271605,.0003441,0.7272,21.3080,70.7878,56.3015,0,U,54743,999,1288,0,.6E-7,0
SHIJIAN-23 (SJ-23),2023-002A,2026-06-07T18:09:44.478720,1.00090135,.000386,3.6923,78.4314,275.9354,328.5432,0,U,55131,999,1241,0,-.184E-5,0
APSTAR-6E,2023-005A,2026-06-07T21:37:46.645248,1.00272170,.0000941,0.0234,247.8796,304.8180,162.0395,0,U,55239,999,1859,0,-.302E-5,0
USA 342,2023-008A,2026-06-07T06:41:44.493216,1.00272218,.0000352,0.0030,157.3806,136.6587,85.8740,0,U,55263,999,1241,0,.152E-5,0
LDPE-3A,2023-008B,2026-06-07T11:23:08.367360,0.99147135,.0001186,2.3215,81.7847,48.8926,226.3312,0,U,55264,999,1171,0,-.122E-5,0
ELEKTRO-L 4,2023-016A,2026-06-06T19:55:51.165120,1.00272593,.0000753,0.0729,180.3018,358.1324,181.5730,0,U,55506,999,1223,0,-.44E-6,0
AMAZONAS NEXUS,2023-017A,2026-06-07T18:16:12.609120,1.00270212,.0005257,0.0376,35.4008,27.9824,45.8466,0,U,55508,999,695,0,-.268E-5,0
ZHONGXING-26,2023-023A,2026-06-06T19:32:45.167424,1.00269430,.00040732,0.0686,72.2783,14.3447,226.9150,0,U,55686,999,1212,0,-.34E-5,0
LUCH-5X (OLYMP-K 2),2023-031A,2026-06-07T18:18:40.188096,1.00273007,.0000806,0.0258,55.9774,171.3692,5.4535,0,U,55841,999,1184,0,.48E-6,0
GAOFEN-13 02,2023-036A,2026-06-07T15:10:39.552672,1.00273310,.0004166,1.0188,359.8527,341.0003,291.1356,0,U,55912,999,1199,0,-.204E-5,0
SES-18,2023-038A,2026-06-07T14:38:56.685984,1.00271715,.000032,0.0165,319.1071,38.0287,15.5244,0,U,55970,999,1200,0,-.86E-6,0
SES-19,2023-038B,2026-06-07T17:55:10.223040,1.00271509,.0001756,0.0221,300.4720,140.4789,309.0910,0,U,55971,999,1199,0,.103E-5,0
INTELSAT 40E (IS-40E),2023-052A,2026-06-06T19:52:59.364768,1.00271821,.000209,0.0159,69.8649,47.4798,345.1516,0,U,56174,999,1172,0,-.161E-5,0
VIASAT-3 F1,2023-060A,2026-06-07T14:42:56.305152,1.00270107,.0000881,0.0236,323.4268,99.9059,324.4267,0,U,56370,999,1133,0,0,0
